{
  "type": "FeatureCollection",
  "features": [
    {
      "type": "Feature",
      "properties": {
        "norad_id": 66681,
        "name": "TRANSPORTER-15 R",
        "group": "last-30-days",
        "lat": 71.93037068263617,
        "lon": -90.19918603371886,
        "alt_km": 510.2763418433524,
        "timestamp": "2025-12-20T14:38:00.688297+00:00",
        "meta_object_name": "TRANSPORTER-15 R",
        "meta_object_id": "2025-276R",
        "meta_epoch": "2025-12-20T01:30:14.533344",
        "meta_mean_motion": 15.17350131,
        "meta_eccentricity": 0.00048864,
        "meta_inclination": 97.4347,
        "meta_ra_of_asc_node": 65.6707,
        "meta_arg_of_pericenter": 287.8227,
        "meta_mean_anomaly": 72.2474,
        "meta_ephemeris_type": 0,
        "meta_classification_type": "U",
        "meta_norad_cat_id": 66681,
        "meta_element_set_no": 999,
        "meta_rev_at_epoch": 323,
        "meta_bstar": 0.00054856684,
        "meta_mean_motion_dot": 0.00010892,
        "meta_mean_motion_ddot": 0,
        "tle_line1": "1 66681U 25276R   25354.06266821  .00010892  00000+0  54857-3 0  9990",
        "tle_line2": "2 66681  97.4347  65.6707 0004886 287.8227  72.2474 15.17350131  3237"
      },
      "geometry": {
        "type": "Point",
        "coordinates": [
          -90.19918603371886,
          71.93037068263617
        ]
      }
    },
    {
      "type": "Feature",
      "properties": {
        "norad_id": 66682,
        "name": "TRANSPORTER-15 S",
        "group": "last-30-days",
        "lat": 80.19335427281061,
        "lon": -64.58864059394483,
        "alt_km": 510.16430782832595,
        "timestamp": "2025-12-20T14:38:00.688307+00:00",
        "meta_object_name": "TRANSPORTER-15 S",
        "meta_object_id": "2025-276S",
        "meta_epoch": "2025-12-20T03:07:44.488992",
        "meta_mean_motion": 15.17084078,
        "meta_eccentricity": 0.00047396,
        "meta_inclination": 97.4468,
        "meta_ra_of_asc_node": 65.7643,
        "meta_arg_of_pericenter": 251.0315,
        "meta_mean_anomaly": 109.0405,
        "meta_ephemeris_type": 0,
        "meta_classification_type": "U",
        "meta_norad_cat_id": 66682,
        "meta_element_set_no": 999,
        "meta_rev_at_epoch": 324,
        "meta_bstar": 0.00037091705,
        "meta_mean_motion_dot": 7.284e-05,
        "meta_mean_motion_ddot": 0,
        "tle_line1": "1 66682U 25276S   25354.13037603  .00007284  00000+0  37092-3 0  9996",
        "tle_line2": "2 66682  97.4468  65.7643 0004739 251.0315 109.0405 15.17084078  3248"
      },
      "geometry": {
        "type": "Point",
        "coordinates": [
          -64.58864059394483,
          80.19335427281061
        ]
      }
    },
    {
      "type": "Feature",
      "properties": {
        "norad_id": 66683,
        "name": "TRANSPORTER-15 T",
        "group": "last-30-days",
        "lat": 82.04544568983688,
        "lon": -44.37830579306977,
        "alt_km": 510.49361593222784,
        "timestamp": "2025-12-20T14:38:00.688317+00:00",
        "meta_object_name": "TRANSPORTER-15 T",
        "meta_object_id": "2025-276T",
        "meta_epoch": "2025-12-20T04:43:37.659360",
        "meta_mean_motion": 15.16976032,
        "meta_eccentricity": 0.00046117,
        "meta_inclination": 97.4462,
        "meta_ra_of_asc_node": 65.827,
        "meta_arg_of_pericenter": 253.4472,
        "meta_mean_anomaly": 106.6255,
        "meta_ephemeris_type": 0,
        "meta_classification_type": "U",
        "meta_norad_cat_id": 66683,
        "meta_element_set_no": 999,
        "meta_rev_at_epoch": 325,
        "meta_bstar": 0.00024112286,
        "meta_mean_motion_dot": 4.696e-05,
        "meta_mean_motion_ddot": 0,
        "tle_line1": "1 66683U 25276T   25354.19696365  .00004696  00000+0  24112-3 0  9992",
        "tle_line2": "2 66683  97.4462  65.8270 0004611 253.4472 106.6255 15.16976032  3255"
      },
      "geometry": {
        "type": "Point",
        "coordinates": [
          -44.37830579306977,
          82.04544568983688
        ]
      }
    },
    {
      "type": "Feature",
      "properties": {
        "norad_id": 66684,
        "name": "TRANSPORTER-15 U",
        "group": "last-30-days",
        "lat": 70.89626668753084,
        "lon": -91.56146267960742,
        "alt_km": 509.68753154841215,
        "timestamp": "2025-12-20T14:38:00.688330+00:00",
        "meta_object_name": "TRANSPORTER-15 U",
        "meta_object_id": "2025-276U",
        "meta_epoch": "2025-12-20T01:29:53.274624",
        "meta_mean_motion": 15.17251438,
        "meta_eccentricity": 0.00043335,
        "meta_inclination": 97.4485,
        "meta_ra_of_asc_node": 65.7072,
        "meta_arg_of_pericenter": 252.8538,
        "meta_mean_anomaly": 107.2221,
        "meta_ephemeris_type": 0,
        "meta_classification_type": "U",
        "meta_norad_cat_id": 66684,
        "meta_element_set_no": 999,
        "meta_rev_at_epoch": 323,
        "meta_bstar": 0.00044012842,
        "meta_mean_motion_dot": 8.698e-05,
        "meta_mean_motion_ddot": 0,
        "tle_line1": "1 66684U 25276U   25354.06242216  .00008698  00000+0  44013-3 0  9999",
        "tle_line2": "2 66684  97.4485  65.7072 0004333 252.8538 107.2221 15.17251438  3232"
      },
      "geometry": {
        "type": "Point",
        "coordinates": [
          -91.56146267960742,
          70.89626668753084
        ]
      }
    },
    {
      "type": "Feature",
      "properties": {
        "norad_id": 66685,
        "name": "TRANSPORTER-15 V",
        "group": "last-30-days",
        "lat": 65.31418250983202,
        "lon": -97.24268015149593,
        "alt_km": 509.95687883524624,
        "timestamp": "2025-12-20T14:38:00.688340+00:00",
        "meta_object_name": "TRANSPORTER-15 V",
        "meta_object_id": "2025-276V",
        "meta_epoch": "2025-12-19T14:23:40.254144",
        "meta_mean_motion": 15.17380939,
        "meta_eccentricity": 0.0003974,
        "meta_inclination": 97.4431,
        "meta_ra_of_asc_node": 65.2408,
        "meta_arg_of_pericenter": 278.7845,
        "meta_mean_anomaly": 81.2938,
        "meta_ephemeris_type": 0,
        "meta_classification_type": "U",
        "meta_norad_cat_id": 66685,
        "meta_element_set_no": 999,
        "meta_rev_at_epoch": 316,
        "meta_bstar": 0.00049331,
        "meta_mean_motion_dot": 9.795e-05,
        "meta_mean_motion_ddot": 0,
        "tle_line1": "1 66685U 25276V   25353.59977146  .00009795  00000+0  49331-3 0  9991",
        "tle_line2": "2 66685  97.4431  65.2408 0003974 278.7845  81.2938 15.17380939  3167"
      },
      "geometry": {
        "type": "Point",
        "coordinates": [
          -97.24268015149593,
          65.31418250983202
        ]
      }
    },
    {
      "type": "Feature",
      "properties": {
        "norad_id": 66686,
        "name": "TRANSPORTER-15 W",
        "group": "last-30-days",
        "lat": 79.54464321407261,
        "lon": -68.62827818875732,
        "alt_km": 510.16735143252845,
        "timestamp": "2025-12-20T14:38:00.688352+00:00",
        "meta_object_name": "TRANSPORTER-15 W",
        "meta_object_id": "2025-276W",
        "meta_epoch": "2025-12-20T03:07:26.447808",
        "meta_mean_motion": 15.16972854,
        "meta_eccentricity": 0.00040006,
        "meta_inclination": 97.4465,
        "meta_ra_of_asc_node": 65.7648,
        "meta_arg_of_pericenter": 256.2752,
        "meta_mean_anomaly": 103.8036,
        "meta_ephemeris_type": 0,
        "meta_classification_type": "U",
        "meta_norad_cat_id": 66686,
        "meta_element_set_no": 999,
        "meta_rev_at_epoch": 324,
        "meta_bstar": 0.00026846338,
        "meta_mean_motion_dot": 5.235e-05,
        "meta_mean_motion_ddot": 0,
        "tle_line1": "1 66686U 25276W   25354.13016722  .00005235  00000+0  26846-3 0  9998",
        "tle_line2": "2 66686  97.4465  65.7648 0004000 256.2752 103.8036 15.16972854  3246"
      },
      "geometry": {
        "type": "Point",
        "coordinates": [
          -68.62827818875732,
          79.54464321407261
        ]
      }
    },
    {
      "type": "Feature",
      "properties": {
        "norad_id": 66687,
        "name": "TRANSPORTER-15 X",
        "group": "last-30-days",
        "lat": 69.28837356432994,
        "lon": 45.98572277485254,
        "alt_km": 503.4767990368591,
        "timestamp": "2025-12-20T14:38:00.688365+00:00",
        "meta_object_name": "TRANSPORTER-15 X",
        "meta_object_id": "2025-276X",
        "meta_epoch": "2025-12-20T03:14:22.467264",
        "meta_mean_motion": 15.16636652,
        "meta_eccentricity": 0.00085167,
        "meta_inclination": 97.4399,
        "meta_ra_of_asc_node": 65.7392,
        "meta_arg_of_pericenter": 63.9348,
        "meta_mean_anomaly": 296.2761,
        "meta_ephemeris_type": 0,
        "meta_classification_type": "U",
        "meta_norad_cat_id": 66687,
        "meta_element_set_no": 999,
        "meta_rev_at_epoch": 324,
        "meta_bstar": 0.0004300187,
        "meta_mean_motion_dot": 8.354e-05,
        "meta_mean_motion_ddot": 0,
        "tle_line1": "1 66687U 25276X   25354.13498226  .00008354  00000+0  43002-3 0  9990",
        "tle_line2": "2 66687  97.4399  65.7392 0008516  63.9348 296.2761 15.16636652  3244"
      },
      "geometry": {
        "type": "Point",
        "coordinates": [
          45.98572277485254,
          69.28837356432994
        ]
      }
    }
  ]
}